{"type": "FeatureCollection", "features": [ {"type": "Feature", "properties": {"norad_id": 32260, "name": "GPS BIIRM-4 (PRN 15)", "group": "gnss", "lat": -15.42684749761496, "lon": 76.3434485271714, "alt_km": 20285.592353938373, "timestamp": "2025-12-08T17:43:05.170932+00:00", "meta": {"OBJECT_NAME": "GPS BIIRM-4 (PRN 15)", "OBJECT_ID": "2007-047A", "EPOCH": "2025-12-07T18:25:34.370688", "MEAN_MOTION": 2.00564615, "ECCENTRICITY": 0.01643014, "INCLINATION": 53.9519, "RA_OF_ASC_NODE": 87.9639, "ARG_OF_PERICENTER": 85.1876, "MEAN_ANOMALY": 276.6737, "EPHEMERIS_TYPE": 0, "CLASSIFICATION_TYPE": "U", "NORAD_CAT_ID": 32260, "ELEMENT_SET_NO": 999, "REV_AT_EPOCH": 13297, "BSTAR": 0, "MEAN_MOTION_DOT": -1.8e-07, "MEAN_MOTION_DDOT": 0}, "tle": {"line1": "1 32260U 07047A   25341.76775892 -.00000018  00000+0  00000+0 0  9995", "line2": "2 32260  53.9519  87.9639 0164301  85.1876 276.6737  2.00564615132978"}}, "geometry": {"type": "Point", "coordinates": [76.3434485271714, -15.42684749761496]}}, {"type": "Feature", "properties": {"norad_id": 32275, "name": "COSMOS 2433 (720)", "group": "gnss", "lat": -64.45100845540263, "lon": -146.64964295533042, "alt_km": 19122.622087655887, "timestamp": "2025-12-08T17:43:05.170944+00:00", "meta": {"OBJECT_NAME": "COSMOS 2433 (720)", "OBJECT_ID": "2007-052A", "EPOCH": "2025-12-07T22:15:39.436992", "MEAN_MOTION": 2.13103936, "ECCENTRICITY": 0.00054366, "INCLINATION": 65.6859, "RA_OF_ASC_NODE": 322.3673, "ARG_OF_PERICENTER": 253.7081, "MEAN_ANOMALY": 106.2283, "EPHEMERIS_TYPE": 0, "CLASSIFICATION_TYPE": "U", "NORAD_CAT_ID": 32275, "ELEMENT_SET_NO": 999, "REV_AT_EPOCH": 14098, "BSTAR": 0, "MEAN_MOTION_DOT": -4.9e-07, "MEAN_MOTION_DDOT": 0}, "tle": {"line1": "1 32275U 07052A   25341.92753978 -.00000049  00000+0  00000+0 0  9990", "line2": "2 32275  65.6859 322.3673 0005436 253.7081 106.2283  2.13103936140982"}}, "geometry": {"type": "Point", "coordinates": [-146.64964295533042, -64.45100845540263]}}, {"type": "Feature", "properties": {"norad_id": 32276, "name": "COSMOS 2432 (719)", "group": "gnss", "lat": -23.819601262127776, "lon": 153.9554203183493, "alt_km": 19141.177881162053, "timestamp": "2025-12-08T17:43:05.170957+00:00", "meta": {"OBJECT_NAME": "COSMOS 2432 (719)", "OBJECT_ID": "2007-052B", "EPOCH": "2025-12-08T02:14:19.806720", "MEAN_MOTION": 2.13103088, "ECCENTRICITY": 0.00112877, "INCLINATION": 65.7017, "RA_OF_ASC_NODE": 322.4859, "ARG_OF_PERICENTER": 312.3782, "MEAN_ANOMALY": 119.1922, "EPHEMERIS_TYPE": 0, "CLASSIFICATION_TYPE": "U", "NORAD_CAT_ID": 32276, "ELEMENT_SET_NO": 999, "REV_AT_EPOCH": 14101, "BSTAR": 0, "MEAN_MOTION_DOT": -4.9e-07, "MEAN_MOTION_DDOT": 0}, "tle": {"line1": "1 32276U 07052B   25342.09328480 -.00000049  00000+0  00000+0 0  9996", "line2": "2 32276  65.7017 322.4859 0011287 312.3782 119.1922  2.13103088141014"}}, "geometry": {"type": "Point", "coordinates": [153.9554203183493, -23.819601262127776]}}, {"type": "Feature", "properties": {"norad_id": 32384, "name": "GPS BIIRM-5 (PRN 29)", "group": "gnss", "lat": 49.86483889042213, "lon": 46.278406254002824, "alt_km": 20121.224320361394, "timestamp": "2025-12-08T17:43:05.170969+00:00", "meta": {"OBJECT_NAME": "GPS BIIRM-5 (PRN 29)", "OBJECT_ID": "2007-062A", "EPOCH": "2025-12-08T07:46:47.506944", "MEAN_MOTION": 2.00576984, "ECCENTRICITY": 0.00322211, "INCLINATION": 55.1861, "RA_OF_ASC_NODE": 281.823, "ARG_OF_PERICENTER": 162.5952, "MEAN_ANOMALY": 10.0568, "EPHEMERIS_TYPE": 0, "CLASSIFICATION_TYPE": "U", "NORAD_CAT_ID": 32384, "ELEMENT_SET_NO": 999, "REV_AT_EPOCH": 13168, "BSTAR": 0, "MEAN_MOTION_DOT": -4.5e-07, "MEAN_MOTION_DDOT": 0}, "tle": {"line1": "1 32384U 07062A   25342.32416096 -.00000045  00000+0  00000+0 0  9990", "line2": "2 32384  55.1861 281.8230 0032221 162.5952  10.0568  2.00576984131682"}}, "geometry": {"type": "Point", "coordinates": [46.278406254002824, 49.86483889042213]}}, {"type": "Feature", "properties": {"norad_id": 32393, "name": "COSMOS 2434 (721)", "group": "gnss", "lat": 24.52467997009457, "lon": 5.6573587085705945, "alt_km": 19125.547659985965, "timestamp": "2025-12-08T17:43:05.170982+00:00", "meta": {"OBJECT_NAME": "COSMOS 2434 (721)", "OBJECT_ID": "2007-065A", "EPOCH": "2025-12-08T05:21:15.731136", "MEAN_MOTION": 2.13101228, "ECCENTRICITY": 0.00044814, "INCLINATION": 64.3148, "RA_OF_ASC_NODE": 198.3559, "ARG_OF_PERICENTER": 71.0536, "MEAN_ANOMALY": 46.2753, "EPHEMERIS_TYPE": 0, "CLASSIFICATION_TYPE": "U", "NORAD_CAT_ID": 32393, "ELEMENT_SET_NO": 999, "REV_AT_EPOCH": 13970, "BSTAR": 0, "MEAN_MOTION_DOT": 5e-07, "MEAN_MOTION_DDOT": 0}, "tle": {"line1": "1 32393U 07065A   25342.22309874  .00000050  00000+0  00000+0 0  9992", "line2": "2 32393  64.3148 198.3559 0004481  71.0536  46.2753  2.13101228139704"}}, "geometry": {"type": "Point", "coordinates": [5.6573587085705945, 24.52467997009457]}}, {"type": "Feature", "properties": {"norad_id": 32395, "name": "COSMOS 2436 (723)", "group": "gnss", "lat": -60.328244167615175, "lon": 140.79996724876477, "alt_km": 19131.56166541334, "timestamp": "2025-12-08T17:43:05.170994+00:00", "meta": {"OBJECT_NAME": "COSMOS 2436 (723)", "OBJECT_ID": "2007-065C", "EPOCH": "2025-12-08T02:01:11.627904", "MEAN_MOTION": 2.13100022, "ECCENTRICITY": 0.00177472, "INCLINATION": 64.3236, "RA_OF_ASC_NODE": 198.4308, "ARG_OF_PERICENTER": 9.2257, "MEAN_ANOMALY": 134.6131, "EPHEMERIS_TYPE": 0, "CLASSIFICATION_TYPE": "U", "NORAD_CAT_ID": 32395, "ELEMENT_SET_NO": 999, "REV_AT_EPOCH": 13965, "BSTAR": 0, "MEAN_MOTION_DOT": 5.1e-07, "MEAN_MOTION_DDOT": 0}, "tle": {"line1": "1 32395U 07065C   25342.08416236  .00000051  00000+0  00000+0 0  9990", "line2": "2 32395  64.3236 198.4308 0017747   9.2257 134.6131  2.13100022139656"}}, "geometry": {"type": "Point", "coordinates": [140.79996724876477, -60.328244167615175]}}, {"type": "Feature", "properties": {"norad_id": 32711, "name": "GPS BIIRM-6 (PRN 07)", "group": "gnss", "lat": 29.521822927192158, "lon": -178.60317928214334, "alt_km": 20651.888557087088, "timestamp": "2025-12-08T17:43:05.171007+00:00", "meta": {"OBJECT_NAME": "GPS BIIRM-6 (PRN 07)", "OBJECT_ID": "2008-012A", "EPOCH": "2025-12-07T16:30:50.099904", "MEAN_MOTION": 2.00565328, "ECCENTRICITY": 0.02022386, "INCLINATION": 54.4764, "RA_OF_ASC_NODE": 157.5746, "ARG_OF_PERICENTER": 244.892, "MEAN_ANOMALY": 113.0048, "EPHEMERIS_TYPE": 0, "CLASSIFICATION_TYPE": "U", "NORAD_CAT_ID": 32711, "ELEMENT_SET_NO": 999, "REV_AT_EPOCH": 12991, "BSTAR": 0, "MEAN_MOTION_DOT": 5.7e-07, "MEAN_MOTION_DDOT": 0}, "tle": {"line1": "1 32711U 08012A   25341.68807986  .00000057  00000+0  00000+0 0  9992", "line2": "2 32711  54.4764 157.5746 0202238 244.8920 113.0048  2.00565328129917"}}, "geometry": {"type": "Point", "coordinates": [-178.60317928214334, 29.521822927192158]}}, {"type": "Feature", "properties": {"norad_id": 35752, "name": "GPS BIIRM-8 (PRN 05)", "group": "gnss", "lat": 43.41063058595755, "lon": 74.44521957250582, "alt_km": 20052.56357167476, "timestamp": "2025-12-08T17:43:05.171020+00:00", "meta": {"OBJECT_NAME": "GPS BIIRM-8 (PRN 05)", "OBJECT_ID": "2009-043A", "EPOCH": "2025-12-08T03:13:53.099904", "MEAN_MOTION": 2.00565854, "ECCENTRICITY": 0.00519295, "INCLINATION": 56.0878, "RA_OF_ASC_NODE": 34.9648, "ARG_OF_PERICENTER": 81.9835, "MEAN_ANOMALY": 258.3784, "EPHEMERIS_TYPE": 0, "CLASSIFICATION_TYPE": "U", "NORAD_CAT_ID": 35752, "ELEMENT_SET_NO": 999, "REV_AT_EPOCH": 11952, "BSTAR": 0, "MEAN_MOTION_DOT": -8e-07, "MEAN_MOTION_DDOT": 0}, "tle": {"line1": "1 35752U 09043A   25342.13464236 -.00000080  00000+0  00000+0 0  9990", "line2": "2 35752  56.0878  34.9648 0051929  81.9835 258.3784  2.00565854119522"}}, "geometry": {"type": "Point", "coordinates": [74.44521957250582, 43.41063058595755]}}, {"type": "Feature", "properties": {"norad_id": 36111, "name": "COSMOS 2456 (730)", "group": "gnss", "lat": -44.26219319342055, "lon": 50.34399558012732, "alt_km": 19127.54665243143, "timestamp": "2025-12-08T17:43:05.171032+00:00", "meta": {"OBJECT_NAME": "COSMOS 2456 (730)", "OBJECT_ID": "2009-070A", "EPOCH": "2025-12-07T20:44:40.162272", "MEAN_MOTION": 2.13103432, "ECCENTRICITY": 0.00030434, "INCLINATION": 64.8974, "RA_OF_ASC_NODE": 77.5047, "ARG_OF_PERICENTER": 297.6461, "MEAN_ANOMALY": 61.5166, "EPHEMERIS_TYPE": 0, "CLASSIFICATION_TYPE": "U", "NORAD_CAT_ID": 36111, "ELEMENT_SET_NO": 999, "REV_AT_EPOCH": 12434, "BSTAR": 0, "MEAN_MOTION_DOT": -1.5e-07, "MEAN_MOTION_DDOT": 0}, "tle": {"line1": "1 36111U 09070A   25341.86435373 -.00000015  00000+0  00000+0 0  9997", "line2": "2 36111  64.8974  77.5047 0003043 297.6461  61.5166  2.13103432124345"}}, "geometry": {"type": "Point", "coordinates": [50.34399558012732, -44.26219319342055]}}, {"type": "Feature", "properties": {"norad_id": 36112, "name": "COSMOS 2457 (733)", "group": "gnss", "lat": 62.63831156026116, "lon": 142.155579118243, "alt_km": 19121.052322932894, "timestamp": "2025-12-08T17:43:05.171044+00:00", "meta": {"OBJECT_NAME": "COSMOS 2457 (733)", "OBJECT_ID": "2009-070B", "EPOCH": "2025-12-08T05:12:02.715840", "MEAN_MOTION": 2.13100811, "ECCENTRICITY": 0.0004735, "INCLINATION": 64.8829, "RA_OF_ASC_NODE": 77.3403, "ARG_OF_PERICENTER": 158.3782, "MEAN_ANOMALY": 240.2784, "EPHEMERIS_TYPE": 0, "CLASSIFICATION_TYPE": "U", "NORAD_CAT_ID": 36112, "ELEMENT_SET_NO": 999, "REV_AT_EPOCH": 12436, "BSTAR": 0, "MEAN_MOTION_DOT": -1.5e-07, "MEAN_MOTION_DDOT": 0}, "tle": {"line1": "1 36112U 09070B   25342.21669810 -.00000015  00000+0  00000+0 0  9993", "line2": "2 36112  64.8829  77.3403 0004735 158.3782 240.2784  2.13100811124369"}}, "geometry": {"type": "Point", "coordinates": [142.155579118243, 62.63831156026116]}}]}